GSAT0233 (GALILEO 33)   
1 67160U 25302A   26132.45034041  .00000057  00000+0  00000+0 0  9997
2 67160  54.3135 103.1487 0001901 244.8588 299.0758  1.70474342  2517
GSAT0234 (GALILEO 34)   
1 67162U 25302C   26134.20830919  .00000049  00000+0  00000+0 0  9993
2 67162  54.3152 103.0978 0003729 298.2730  64.6782  1.70474268  2604
